CCSDS_OMM_VERS = 2.0
CREATION_DATE  = 
ORIGINATOR     = 

OBJECT_NAME    = STARLINK-36411
OBJECT_ID      = 2026-018V
CENTER_NAME    = EARTH
REF_FRAME      = TEME
TIME_SYSTEM    = UTC
MEAN_ELEMENT_THEORY = SGP/SGP4

EPOCH          = 2026-02-06T20:00:01.999008
MEAN_MOTION    = 15.94938927
ECCENTRICITY   = .0001303
INCLINATION    = 97.2762
RA_OF_ASC_NODE = 102.0225
ARG_OF_PERICENTER = 85.3234
MEAN_ANOMALY   = 292.0498

EPHEMERIS_TYPE = 0
CLASSIFICATION_TYPE = U
NORAD_CAT_ID   = 67608
ELEMENT_SET_NO = 999
REV_AT_EPOCH   = 243
BSTAR          = -.46328E-2
MEAN_MOTION_DOT = -.1763278E-1
MEAN_MOTION_DDOT = .88782E-3

CCSDS_OMM_VERS = 2.0
CREATION_DATE  = 
ORIGINATOR     = 

OBJECT_NAME    = STARLINK-36312
OBJECT_ID      = 2026-018W
CENTER_NAME    = EARTH
REF_FRAME      = TEME
TIME_SYSTEM    = UTC
MEAN_ELEMENT_THEORY = SGP/SGP4

EPOCH          = 2026-02-06T20:00:01.999008
MEAN_MOTION    = 15.95132376
ECCENTRICITY   = .0001364
INCLINATION    = 97.2764
RA_OF_ASC_NODE = 102.0242
ARG_OF_PERICENTER = 76.4043
MEAN_ANOMALY   = 304.5397

EPHEMERIS_TYPE = 0
CLASSIFICATION_TYPE = U
NORAD_CAT_ID   = 67609
ELEMENT_SET_NO = 999
REV_AT_EPOCH   = 244
BSTAR          = -.45176E-2
MEAN_MOTION_DOT = -.1737525E-1
MEAN_MOTION_DDOT = .86554E-3

CCSDS_OMM_VERS = 2.0
CREATION_DATE  = 
ORIGINATOR     = 

OBJECT_NAME    = STARLINK-36387
OBJECT_ID      = 2026-018X
CENTER_NAME    = EARTH
REF_FRAME      = TEME
TIME_SYSTEM    = UTC
MEAN_ELEMENT_THEORY = SGP/SGP4

EPOCH          = 2026-02-06T20:00:01.999008
MEAN_MOTION    = 15.95382995
ECCENTRICITY   = .0001308
INCLINATION    = 97.2759
RA_OF_ASC_NODE = 102.0258
ARG_OF_PERICENTER = 75.4123
MEAN_ANOMALY   = 309.7771

EPHEMERIS_TYPE = 0
CLASSIFICATION_TYPE = U
NORAD_CAT_ID   = 67610
ELEMENT_SET_NO = 999
REV_AT_EPOCH   = 244
BSTAR          = -.44568E-2
MEAN_MOTION_DOT = -.1737166E-1
MEAN_MOTION_DDOT = .86752E-3

CCSDS_OMM_VERS = 2.0
CREATION_DATE  = 
ORIGINATOR     = 

OBJECT_NAME    = STARLINK-36636
OBJECT_ID      = 2026-018Y
CENTER_NAME    = EARTH
REF_FRAME      = TEME
TIME_SYSTEM    = UTC
MEAN_ELEMENT_THEORY = SGP/SGP4

EPOCH          = 2026-02-06T20:00:01.999008
MEAN_MOTION    = 15.95571082
ECCENTRICITY   = .0001319
INCLINATION    = 97.2758
RA_OF_ASC_NODE = 102.0272
ARG_OF_PERICENTER = 74.8094
MEAN_ANOMALY   = 313.5588

EPHEMERIS_TYPE = 0
CLASSIFICATION_TYPE = U
NORAD_CAT_ID   = 67611
ELEMENT_SET_NO = 999
REV_AT_EPOCH   = 239
BSTAR          = -.44376E-2
MEAN_MOTION_DOT = -.174705E-1
MEAN_MOTION_DDOT = .87851E-3

CCSDS_OMM_VERS = 2.0
CREATION_DATE  = 
ORIGINATOR     = 

OBJECT_NAME    = STARLINK-36407
OBJECT_ID      = 2026-018Z
CENTER_NAME    = EARTH
REF_FRAME      = TEME
TIME_SYSTEM    = UTC
MEAN_ELEMENT_THEORY = SGP/SGP4

EPOCH          = 2026-02-06T20:00:01.999008
MEAN_MOTION    = 15.95714970
ECCENTRICITY   = .0001361
INCLINATION    = 97.2758
RA_OF_ASC_NODE = 102.0287
ARG_OF_PERICENTER = 70.6768
MEAN_ANOMALY   = 320.4234

EPHEMERIS_TYPE = 0
CLASSIFICATION_TYPE = U
NORAD_CAT_ID   = 67612
ELEMENT_SET_NO = 999
REV_AT_EPOCH   = 249
BSTAR          = -.43546E-2
MEAN_MOTION_DOT = -.1727872E-1
MEAN_MOTION_DDOT = .86192E-3

CCSDS_OMM_VERS = 2.0
CREATION_DATE  = 
ORIGINATOR     = 

OBJECT_NAME    = STARLINK-36597
OBJECT_ID      = 2026-018AA
CENTER_NAME    = EARTH
REF_FRAME      = TEME
TIME_SYSTEM    = UTC
MEAN_ELEMENT_THEORY = SGP/SGP4

EPOCH          = 2026-02-06T20:00:01.999008
MEAN_MOTION    = 15.95885010
ECCENTRICITY   = .0001413
INCLINATION    = 97.2752
RA_OF_ASC_NODE = 102.0296
ARG_OF_PERICENTER = 81.7871
MEAN_ANOMALY   = 312.3315

EPHEMERIS_TYPE = 0
CLASSIFICATION_TYPE = U
NORAD_CAT_ID   = 67613
ELEMENT_SET_NO = 999
REV_AT_EPOCH   = 239
BSTAR          = -.43155E-2
MEAN_MOTION_DOT = -.1728072E-1
MEAN_MOTION_DDOT = .86367E-3

CCSDS_OMM_VERS = 2.0
CREATION_DATE  = 
ORIGINATOR     = 

OBJECT_NAME    = NEONSAT-1A
OBJECT_ID      = 2026-019A
CENTER_NAME    = EARTH
REF_FRAME      = TEME
TIME_SYSTEM    = UTC
MEAN_ELEMENT_THEORY = SGP/SGP4

EPOCH          = 2026-02-06T20:25:38.750880
MEAN_MOTION    = 15.07563566
ECCENTRICITY   = .0011759
INCLINATION    = 97.4091
RA_OF_ASC_NODE = 162.5416
ARG_OF_PERICENTER = 281.1938
MEAN_ANOMALY   = 78.7969

EPHEMERIS_TYPE = 0
CLASSIFICATION_TYPE = U
NORAD_CAT_ID   = 67614
ELEMENT_SET_NO = 999
REV_AT_EPOCH   = 117
BSTAR          = .28229E-3
MEAN_MOTION_DOT = .4237E-4
MEAN_MOTION_DDOT = 0

CCSDS_OMM_VERS = 2.0
CREATION_DATE  = 
ORIGINATOR     = 

OBJECT_NAME    = ELECTRON R/B
OBJECT_ID      = 2026-019B
CENTER_NAME    = EARTH
REF_FRAME      = TEME
TIME_SYSTEM    = UTC
MEAN_ELEMENT_THEORY = SGP/SGP4

EPOCH          = 2026-02-06T13:48:58.959360
MEAN_MOTION    = 15.91134128
ECCENTRICITY   = .0182184
INCLINATION    = 97.4325
RA_OF_ASC_NODE = 163.1458
ARG_OF_PERICENTER = 199.8339
MEAN_ANOMALY   = 159.5790

EPHEMERIS_TYPE = 0
CLASSIFICATION_TYPE = U
NORAD_CAT_ID   = 67615
ELEMENT_SET_NO = 999
REV_AT_EPOCH   = 118
BSTAR          = .14721E-2
MEAN_MOTION_DOT = .2363777E-1
MEAN_MOTION_DDOT = .21823E-5

CCSDS_OMM_VERS = 2.0
CREATION_DATE  = 
ORIGINATOR     = 

OBJECT_NAME    = ELECTRON KICK STAGE R/B
OBJECT_ID      = 2026-019C
CENTER_NAME    = EARTH
REF_FRAME      = TEME
TIME_SYSTEM    = UTC
MEAN_ELEMENT_THEORY = SGP/SGP4

EPOCH          = 2026-02-06T19:20:50.365536
MEAN_MOTION    = 15.57763637
ECCENTRICITY   = .0195337
INCLINATION    = 97.4059
RA_OF_ASC_NODE = 163.0546
ARG_OF_PERICENTER = 234.3066
MEAN_ANOMALY   = 123.9875

EPHEMERIS_TYPE = 0
CLASSIFICATION_TYPE = U
NORAD_CAT_ID   = 67616
ELEMENT_SET_NO = 999
REV_AT_EPOCH   = 120
BSTAR          = .18874E-2
MEAN_MOTION_DOT = .351397E-2
MEAN_MOTION_DDOT = .35005E-4

CCSDS_OMM_VERS = 2.0
CREATION_DATE  = 
ORIGINATOR     = 

OBJECT_NAME    = STARLINK-36548
OBJECT_ID      = 2026-020A
CENTER_NAME    = EARTH
REF_FRAME      = TEME
TIME_SYSTEM    = UTC
MEAN_ELEMENT_THEORY = SGP/SGP4

EPOCH          = 2026-02-06T20:00:01.999008
MEAN_MOTION    = 15.89168113
ECCENTRICITY   = .0001756
INCLINATION    = 42.9993
RA_OF_ASC_NODE = 330.0353
ARG_OF_PERICENTER = 254.3747
MEAN_ANOMALY   = 62.7934

EPHEMERIS_TYPE = 0
CLASSIFICATION_TYPE = U
NORAD_CAT_ID   = 67617
ELEMENT_SET_NO = 999
REV_AT_EPOCH   = 243
BSTAR          = -.67308E-2
MEAN_MOTION_DOT = -.1740383E-1
MEAN_MOTION_DDOT = 0

CCSDS_OMM_VERS = 2.0
CREATION_DATE  = 
ORIGINATOR     = 

OBJECT_NAME    = STARLINK-36601
OBJECT_ID      = 2026-020B
CENTER_NAME    = EARTH
REF_FRAME      = TEME
TIME_SYSTEM    = UTC
MEAN_ELEMENT_THEORY = SGP/SGP4

EPOCH          = 2026-02-06T20:00:01.999008
MEAN_MOTION    = 15.89294759
ECCENTRICITY   = .0001772
INCLINATION    = 42.9996
RA_OF_ASC_NODE = 330.0302
ARG_OF_PERICENTER = 259.1438
MEAN_ANOMALY   = 60.0981

EPHEMERIS_TYPE = 0
CLASSIFICATION_TYPE = U
NORAD_CAT_ID   = 67618
ELEMENT_SET_NO = 999
REV_AT_EPOCH   = 243
BSTAR          = -.6693E-2
MEAN_MOTION_DOT = -.1741699E-1
MEAN_MOTION_DDOT = 0

CCSDS_OMM_VERS = 2.0
CREATION_DATE  = 
ORIGINATOR     = 

OBJECT_NAME    = STARLINK-36119
OBJECT_ID      = 2026-020C
CENTER_NAME    = EARTH
REF_FRAME      = TEME
TIME_SYSTEM    = UTC
MEAN_ELEMENT_THEORY = SGP/SGP4

EPOCH          = 2026-02-06T20:00:01.999008
MEAN_MOTION    = 15.89378634
ECCENTRICITY   = .0001754
INCLINATION    = 42.9995
RA_OF_ASC_NODE = 330.0262
ARG_OF_PERICENTER = 258.9747
MEAN_ANOMALY   = 61.8117

EPHEMERIS_TYPE = 0
CLASSIFICATION_TYPE = U
NORAD_CAT_ID   = 67619
ELEMENT_SET_NO = 999
REV_AT_EPOCH   = 243
BSTAR          = -.66501E-2
MEAN_MOTION_DOT = -.1738502E-1
MEAN_MOTION_DDOT = 0

