STARLINK-36411          
1 67608U 26018V   26037.83335647 -.01763278  88782-3 -46328-2 0  9998
2 67608  97.2762 102.0225 0001303  85.3234 292.0498 15.94938927  2436
STARLINK-36312          
1 67609U 26018W   26037.83335647 -.01737525  86554-3 -45176-2 0  9990
2 67609  97.2764 102.0242 0001364  76.4043 304.5397 15.95132376  2447
STARLINK-36387          
1 67610U 26018X   26037.83335647 -.01737166  86752-3 -44568-2 0  9997
2 67610  97.2759 102.0258 0001308  75.4123 309.7771 15.95382995  2443
STARLINK-36636          
1 67611U 26018Y   26037.83335647 -.01747050  87851-3 -44376-2 0  9999
2 67611  97.2758 102.0272 0001319  74.8094 313.5588 15.95571082  2391
STARLINK-36407          
1 67612U 26018Z   26037.83335647 -.01727872  86192-3 -43546-2 0  9995
2 67612  97.2758 102.0287 0001361  70.6768 320.4234 15.95714970  2498
STARLINK-36597          
1 67613U 26018AA  26037.83335647 -.01728072  86367-3 -43155-2 0  9999
2 67613  97.2752 102.0296 0001413  81.7871 312.3315 15.95885010  2392
NEONSAT-1A              
1 67614U 26019A   26037.85114295  .00004237  00000+0  28229-3 0  9996
2 67614  97.4091 162.5416 0011759 281.1938  78.7969 15.07563566  1175
ELECTRON R/B            
1 67615U 26019B   26037.57568240  .02363777  21823-5  14721-2 0  9991
2 67615  97.4325 163.1458 0182184 199.8339 159.5790 15.91134128  1182
ELECTRON KICK STAGE R/B 
1 67616U 26019C   26037.80613849  .00351397  35005-4  18874-2 0  9996
2 67616  97.4059 163.0546 0195337 234.3066 123.9875 15.57763637  1207
STARLINK-36548          
1 67617U 26020A   26037.83335647 -.01740383  00000+0 -67308-2 0  9997
2 67617  42.9993 330.0353 0001756 254.3747  62.7934 15.89168113  2436
STARLINK-36601          
1 67618U 26020B   26037.83335647 -.01741699  00000+0 -66930-2 0  9999
2 67618  42.9996 330.0302 0001772 259.1438  60.0981 15.89294759  2431
STARLINK-36119          
1 67619U 26020C   26037.83335647 -.01738502  00000+0 -66501-2 0  9993
2 67619  42.9995 330.0262 0001754 258.9747  61.8117 15.89378634  2431
